[{"OBJECT_NAME":"STARLINK-35289","OBJECT_ID":"2025-218U","EPOCH":"2026-03-09T13:44:46.798368","MEAN_MOTION":15.05648513,"ECCENTRICITY":0.0002126,"INCLINATION":97.603,"RA_OF_ASC_NODE":292.8624,"ARG_OF_PERICENTER":89.5694,"MEAN_ANOMALY":270.5777,"EPHEMERIS_TYPE":0,"CLASSIFICATION_TYPE":"U","NORAD_CAT_ID":65809,"ELEMENT_SET_NO":999,"REV_AT_EPOCH":2495,"BSTAR":0.00029108,"MEAN_MOTION_DOT":4.142e-5,"MEAN_MOTION_DDOT":0},{"OBJECT_NAME":"RAPIDEYE 4","OBJECT_ID":"2008-040E","EPOCH":"2026-03-09T22:51:05.848992","MEAN_MOTION":15.03765217,"ECCENTRICITY":0.00096509,"INCLINATION":97.4015,"RA_OF_ASC_NODE":97.7474,"ARG_OF_PERICENTER":35.5595,"MEAN_ANOMALY":324.6273,"EPHEMERIS_TYPE":0,"CLASSIFICATION_TYPE":"U","NORAD_CAT_ID":33316,"ELEMENT_SET_NO":999,"REV_AT_EPOCH":95086,"BSTAR":0.00022327721,"MEAN_MOTION_DOT":3.01e-5,"MEAN_MOTION_DDOT":0}]
